{"type": "FeatureCollection", "features": [ {"type": "Feature", "properties": {"norad_id": 34432, "name": "COSMOS 2251 DEB", "group": "cosmos-2251-debris", "lat": -41.84071883964779, "lon": 91.36200654569323, "alt_km": 967.6611397339548, "timestamp": "2025-12-10T09:57:45.092171+00:00", "meta": {"OBJECT_NAME": "COSMOS 2251 DEB", "OBJECT_ID": "1993-036RZ", "EPOCH": "2025-12-09T19:30:43.256160", "MEAN_MOTION": 14.02887918, "ECCENTRICITY": 0.0182755, "INCLINATION": 73.8286, "RA_OF_ASC_NODE": 107.4812, "ARG_OF_PERICENTER": 190.6056, "MEAN_ANOMALY": 324.0899, "EPHEMERIS_TYPE": 0, "CLASSIFICATION_TYPE": "U", "NORAD_CAT_ID": 34432, "ELEMENT_SET_NO": 999, "REV_AT_EPOCH": 85643, "BSTAR": 0.0021957, "MEAN_MOTION_DOT": 3.918e-05, "MEAN_MOTION_DDOT": 0}, "tle": {"line1": "1 34432U 93036RZ  25343.81300065  .00003918  00000+0  21957-2 0  9993", "line2": "2 34432  73.8286 107.4812 0182755 190.6056 324.0899 14.02887918856439"}}, "geometry": {"type": "Point", "coordinates": [91.36200654569323, -41.84071883964779]}}, {"type": "Feature", "properties": {"norad_id": 34433, "name": "COSMOS 2251 DEB", "group": "cosmos-2251-debris", "lat": -67.73941797843602, "lon": 23.521136504209963, "alt_km": 775.8507034842796, "timestamp": "2025-12-10T09:57:45.092181+00:00", "meta": {"OBJECT_NAME": "COSMOS 2251 DEB", "OBJECT_ID": "1993-036SA", "EPOCH": "2025-12-08T22:45:44.652672", "MEAN_MOTION": 14.12826602, "ECCENTRICITY": 0.0151933, "INCLINATION": 74.0116, "RA_OF_ASC_NODE": 161.6553, "ARG_OF_PERICENTER": 300.4832, "MEAN_ANOMALY": 58.1378, "EPHEMERIS_TYPE": 0, "CLASSIFICATION_TYPE": "U", "NORAD_CAT_ID": 34433, "ELEMENT_SET_NO": 999, "REV_AT_EPOCH": 85896, "BSTAR": 0.0014623, "MEAN_MOTION_DOT": 3.008e-05, "MEAN_MOTION_DDOT": 0}, "tle": {"line1": "1 34433U 93036SA  25342.94843348  .00003008  00000+0  14623-2 0  9995", "line2": "2 34433  74.0116 161.6553 0151933 300.4832  58.1378 14.12826602858967"}}, "geometry": {"type": "Point", "coordinates": [23.521136504209963, -67.73941797843602]}}, {"type": "Feature", "properties": {"norad_id": 34434, "name": "COSMOS 2251 DEB", "group": "cosmos-2251-debris", "lat": -20.841598977335472, "lon": 7.834083706005856, "alt_km": 1134.2312537942616, "timestamp": "2025-12-10T09:57:45.092191+00:00", "meta": {"OBJECT_NAME": "COSMOS 2251 DEB", "OBJECT_ID": "1993-036SB", "EPOCH": "2025-12-09T20:31:05.558880", "MEAN_MOTION": 13.89781888, "ECCENTRICITY": 0.0275528, "INCLINATION": 74.0631, "RA_OF_ASC_NODE": 15.0312, "ARG_OF_PERICENTER": 153.0228, "MEAN_ANOMALY": 264.1058, "EPHEMERIS_TYPE": 0, "CLASSIFICATION_TYPE": "U", "NORAD_CAT_ID": 34434, "ELEMENT_SET_NO": 999, "REV_AT_EPOCH": 83926, "BSTAR": 0.003641, "MEAN_MOTION_DOT": 6.052e-05, "MEAN_MOTION_DDOT": 0}, "tle": {"line1": "1 34434U 93036SB  25343.85492545  .00006052  00000+0  36410-2 0  9996", "line2": "2 34434  74.0631  15.0312 0275528 153.0228 264.1058 13.89781888839268"}}, "geometry": {"type": "Point", "coordinates": [7.834083706005856, -20.841598977335472]}}, {"type": "Feature", "properties": {"norad_id": 34446, "name": "COSMOS 2251 DEB", "group": "cosmos-2251-debris", "lat": 25.951128973479975, "lon": 69.64575277792657, "alt_km": 762.7092821861434, "timestamp": "2025-12-10T09:57:45.092201+00:00", "meta": {"OBJECT_NAME": "COSMOS 2251 DEB", "OBJECT_ID": "1993-036SP", "EPOCH": "2025-12-10T04:52:01.047360", "MEAN_MOTION": 14.49348172, "ECCENTRICITY": 0.0051277, "INCLINATION": 74.0423, "RA_OF_ASC_NODE": 62.039, "ARG_OF_PERICENTER": 200.6498, "MEAN_ANOMALY": 159.2591, "EPHEMERIS_TYPE": 0, "CLASSIFICATION_TYPE": "U", "NORAD_CAT_ID": 34446, "ELEMENT_SET_NO": 999, "REV_AT_EPOCH": 88657, "BSTAR": 0.00022836, "MEAN_MOTION_DOT": 8.58e-06, "MEAN_MOTION_DDOT": 0}, "tle": {"line1": "1 34446U 93036SP  25344.20278990  .00000858  00000+0  22836-3 0  9991", "line2": "2 34446  74.0423  62.0390 0051277 200.6498 159.2591 14.49348172886573"}}, "geometry": {"type": "Point", "coordinates": [69.64575277792657, 25.951128973479975]}}, {"type": "Feature", "properties": {"norad_id": 34449, "name": "COSMOS 2251 DEB", "group": "cosmos-2251-debris", "lat": 24.146194311391834, "lon": -112.12796994641988, "alt_km": 569.1456166193848, "timestamp": "2025-12-10T09:57:45.092211+00:00", "meta": {"OBJECT_NAME": "COSMOS 2251 DEB", "OBJECT_ID": "1993-036SS", "EPOCH": "2025-12-09T07:49:17.409216", "MEAN_MOTION": 14.94544215, "ECCENTRICITY": 0.0023566, "INCLINATION": 74.0323, "RA_OF_ASC_NODE": 77.4414, "ARG_OF_PERICENTER": 122.2048, "MEAN_ANOMALY": 294.3204, "EPHEMERIS_TYPE": 0, "CLASSIFICATION_TYPE": "U", "NORAD_CAT_ID": 34449, "ELEMENT_SET_NO": 999, "REV_AT_EPOCH": 88642, "BSTAR": 0.0039384, "MEAN_MOTION_DOT": 0.00043038, "MEAN_MOTION_DDOT": 0}, "tle": {"line1": "1 34449U 93036SS  25343.32589594  .00043038  00000+0  39384-2 0  9993", "line2": "2 34449  74.0323  77.4414 0023566 122.2048 294.3204 14.94544215886424"}}, "geometry": {"type": "Point", "coordinates": [-112.12796994641988, 24.146194311391834]}}, {"type": "Feature", "properties": {"norad_id": 34451, "name": "COSMOS 2251 DEB", "group": "cosmos-2251-debris", "lat": 56.48817217003471, "lon": -113.03569831319308, "alt_km": 558.5878035804526, "timestamp": "2025-12-10T09:57:45.092221+00:00", "meta": {"OBJECT_NAME": "COSMOS 2251 DEB", "OBJECT_ID": "1993-036SU", "EPOCH": "2025-12-09T17:22:22.164960", "MEAN_MOTION": 14.95270196, "ECCENTRICITY": 0.0024545, "INCLINATION": 74.0466, "RA_OF_ASC_NODE": 93.9517, "ARG_OF_PERICENTER": 115.9836, "MEAN_ANOMALY": 244.3881, "EPHEMERIS_TYPE": 0, "CLASSIFICATION_TYPE": "U", "NORAD_CAT_ID": 34451, "ELEMENT_SET_NO": 999, "REV_AT_EPOCH": 88590, "BSTAR": 0.0041463, "MEAN_MOTION_DOT": 0.000462, "MEAN_MOTION_DDOT": 0}, "tle": {"line1": "1 34451U 93036SU  25343.72386765  .00046200  00000+0  41463-2 0  9990", "line2": "2 34451  74.0466  93.9517 0024545 115.9836 244.3881 14.95270196885907"}}, "geometry": {"type": "Point", "coordinates": [-113.03569831319308, 56.48817217003471]}}, {"type": "Feature", "properties": {"norad_id": 34452, "name": "COSMOS 2251 DEB", "group": "cosmos-2251-debris", "lat": 68.1369426911598, "lon": -126.85482660263216, "alt_km": 569.8560394755887, "timestamp": "2025-12-10T09:57:45.092231+00:00", "meta": {"OBJECT_NAME": "COSMOS 2251 DEB", "OBJECT_ID": "1993-036SV", "EPOCH": "2025-12-09T18:18:49.197024", "MEAN_MOTION": 15.11555323, "ECCENTRICITY": 0.0066733, "INCLINATION": 74.0362, "RA_OF_ASC_NODE": 188.9797, "ARG_OF_PERICENTER": 265.973, "MEAN_ANOMALY": 222.1832, "EPHEMERIS_TYPE": 0, "CLASSIFICATION_TYPE": "U", "NORAD_CAT_ID": 34452, "ELEMENT_SET_NO": 999, "REV_AT_EPOCH": 90617, "BSTAR": 0.0010451, "MEAN_MOTION_DOT": 0.00018711, "MEAN_MOTION_DDOT": 0}, "tle": {"line1": "1 34452U 93036SV  25343.76306941  .00018711  00000+0  10451-2 0  9992", "line2": "2 34452  74.0362 188.9797 0066733 265.9730 222.1832 15.11555323906172"}}, "geometry": {"type": "Point", "coordinates": [-126.85482660263216, 68.1369426911598]}}, {"type": "Feature", "properties": {"norad_id": 34453, "name": "COSMOS 2251 DEB", "group": "cosmos-2251-debris", "lat": 74.03899832305866, "lon": -170.51431801612884, "alt_km": 337.89235779864975, "timestamp": "2025-12-10T09:57:45.092242+00:00", "meta": {"OBJECT_NAME": "COSMOS 2251 DEB", "OBJECT_ID": "1993-036SW", "EPOCH": "2025-12-10T00:26:39.677856", "MEAN_MOTION": 15.74627952, "ECCENTRICITY": 0.0022372, "INCLINATION": 74.1083, "RA_OF_ASC_NODE": 105.4107, "ARG_OF_PERICENTER": 342.792, "MEAN_ANOMALY": 17.2545, "EPHEMERIS_TYPE": 0, "CLASSIFICATION_TYPE": "U", "NORAD_CAT_ID": 34453, "ELEMENT_SET_NO": 999, "REV_AT_EPOCH": 88824, "BSTAR": 0.014245, "MEAN_MOTION_DOT": 0.02439797, "MEAN_MOTION_DDOT": 0}, "tle": {"line1": "1 34453U 93036SW  25344.01851479  .02439797  00000+0  14245-1 0  9990", "line2": "2 34453  74.1083 105.4107 0022372 342.7920  17.2545 15.74627952888247"}}, "geometry": {"type": "Point", "coordinates": [-170.51431801612884, 74.03899832305866]}}, {"type": "Feature", "properties": {"norad_id": 34454, "name": "COSMOS 2251 DEB", "group": "cosmos-2251-debris", "lat": -2.234941990697876, "lon": -78.72027910629761, "alt_km": 740.6616807429509, "timestamp": "2025-12-10T09:57:45.092252+00:00", "meta": {"OBJECT_NAME": "COSMOS 2251 DEB", "OBJECT_ID": "1993-036SX", "EPOCH": "2025-12-09T12:16:47.341056", "MEAN_MOTION": 14.38800683, "ECCENTRICITY": 0.0035474, "INCLINATION": 74.0587, "RA_OF_ASC_NODE": 283.582, "ARG_OF_PERICENTER": 346.7462, "MEAN_ANOMALY": 13.2757, "EPHEMERIS_TYPE": 0, "CLASSIFICATION_TYPE": "U", "NORAD_CAT_ID": 34454, "ELEMENT_SET_NO": 999, "REV_AT_EPOCH": 88021, "BSTAR": 0.00048743, "MEAN_MOTION_DOT": 1.483e-05, "MEAN_MOTION_DDOT": 0}, "tle": {"line1": "1 34454U 93036SX  25343.51165904  .00001483  00000+0  48743-3 0  9993", "line2": "2 34454  74.0587 283.5820 0035474 346.7462  13.2757 14.38800683880211"}}, "geometry": {"type": "Point", "coordinates": [-78.72027910629761, -2.234941990697876]}}, {"type": "Feature", "properties": {"norad_id": 34459, "name": "COSMOS 2251 DEB", "group": "cosmos-2251-debris", "lat": -42.23469215109476, "lon": -116.95141841370392, "alt_km": 761.9348836948902, "timestamp": "2025-12-10T09:57:45.092262+00:00", "meta": {"OBJECT_NAME": "COSMOS 2251 DEB", "OBJECT_ID": "1993-036TC", "EPOCH": "2025-12-09T18:44:13.803648", "MEAN_MOTION": 14.0049223, "ECCENTRICITY": 0.0192037, "INCLINATION": 74.0793, "RA_OF_ASC_NODE": 259.1627, "ARG_OF_PERICENTER": 329.6124, "MEAN_ANOMALY": 29.3986, "EPHEMERIS_TYPE": 0, "CLASSIFICATION_TYPE": "U", "NORAD_CAT_ID": 34459, "ELEMENT_SET_NO": 999, "REV_AT_EPOCH": 85670, "BSTAR": 0.00087515, "MEAN_MOTION_DOT": 1.499e-05, "MEAN_MOTION_DDOT": 0}, "tle": {"line1": "1 34459U 93036TC  25343.78071532  .00001499  00000+0  87515-3 0  9997", "line2": "2 34459  74.0793 259.1627 0192037 329.6124  29.3986 14.00492230856706"}}, "geometry": {"type": "Point", "coordinates": [-116.95141841370392, -42.23469215109476]}}]}